{"type":"FeatureCollection","features":[{"type":"Feature","properties":{"NAME":"San Bernardino","SCALERANK":4,"POP_MAX":1745000,"ADM1NAME":"California","FEATURECLA":"Populated place","LATITUDE":34.12233,"LONGITUDE":-117.30198,"MIN_ZOOM":5.6},"geometry":{"type":"Point","coordinates":[-117.30198,34.12233]}},{"type":"Feature","properties":{"NAME":"Bridgeport","SCALERANK":4,"POP_MAX":1018000,"ADM1NAME":"Connecticut","FEATURECLA":"Populated place","LATITUDE":41.181925,"LONGITUDE":-73.201907,"MIN_ZOOM":5.6},"geometry":{"type":"Point","coordinates":[-73.201907,41.181925]}},{"type":"Feature","properties":{"NAME":"Rochester","SCALERANK":4,"POP_MAX":755000,"ADM1NAME":"New York","FEATURECLA":"Populated place","LATITUDE":43.172372,"LONGITUDE":-77.621896,"MIN_ZOOM":5.1},"geometry":{"type":"Point","coordinates":[-77.621896,43.172371]}},{"type":"Feature","properties":{"NAME":"International Falls","SCALERANK":4,"POP_MAX":15240,"ADM1NAME":"Minnesota","FEATURECLA":"Populated place","LATITUDE":48.601128,"LONGITUDE":-93.410846,"MIN_ZOOM":5.6},"geometry":{"type":"Point","coordinates":[-93.410846,48.601128]}},{"type":"Feature","properties":{"NAME":"St.  Paul","SCALERANK":4,"POP_MAX":734854,"ADM1NAME":"Minnesota","FEATURECLA":"Admin-1 capital","LATITUDE":44.943987,"LONGITUDE":-93.084975,"MIN_ZOOM":5.6},"geometry":{"type":"Point","coordinates":[-93.084975,44.943987]}},{"type":"Feature","properties":{"NAME":"Billings","SCALERANK":4,"POP_MAX":104552,"ADM1NAME":"Montana","FEATURECLA":"Populated place","LATITUDE":45.788302,"LONGITUDE":-108.54,"MIN_ZOOM":5.6},"geometry":{"type":"Point","coordinates":[-108.54,45.788302]}},{"type":"Feature","properties":{"NAME":"Great Falls","SCALERANK":4,"POP_MAX":66558,"ADM1NAME":"Montana","FEATURECLA":"Populated place","LATITUDE":47.500291,"LONGITUDE":-111.299987,"MIN_ZOOM":5.6},"geometry":{"type":"Point","coordinates":[-111.299987,47.50029]}},{"type":"Feature","properties":{"NAME":"Missoula","SCALERANK":4,"POP_MAX":72856,"ADM1NAME":"Montana","FEATURECLA":"Populated place","LATITUDE":46.872241,"LONGITUDE":-113.993053,"MIN_ZOOM":5.6},"geometry":{"type":"Point","coordinates":[-113.993053,46.872241]}},{"type":"Feature","properties":{"NAME":"Minot","SCALERANK":4,"POP_MAX":39439,"ADM1NAME":"North Dakota","FEATURECLA":"Populated place","LATITUDE":48.232494,"LONGITUDE":-101.295817,"MIN_ZOOM":5.6},"geometry":{"type":"Point","coordinates":[-101.295817,48.232494]}},{"type":"Feature","properties":{"NAME":"Fargo","SCALERANK":4,"POP_MAX":162842,"ADM1NAME":"North Dakota","FEATURECLA":"Populated place","LATITUDE":46.877228,"LONGITUDE":-96.789426,"MIN_ZOOM":5.1},"geometry":{"type":"Point","coordinates":[-96.789426,46.877228]}},{"type":"Feature","properties":{"NAME":"Hilo","SCALERANK":4,"POP_MAX":52391,"ADM1NAME":"Hawaii","FEATURECLA":"Populated place","LATITUDE":19.699998,"LONGITUDE":-155.090027,"MIN_ZOOM":5.1},"geometry":{"type":"Point","coordinates":[-155.08154,19.705643]}},{"type":"Feature","properties":{"NAME":"Olympia","SCALERANK":4,"POP_MAX":156984,"ADM1NAME":"Washington","FEATURECLA":"Admin-1 capital","LATITUDE":47.038045,"LONGITUDE":-122.899434,"MIN_ZOOM":5.6},"geometry":{"type":"Point","coordinates":[-122.899434,47.038045]}},{"type":"Feature","properties":{"NAME":"Spokane","SCALERANK":4,"POP_MAX":347705,"ADM1NAME":"Washington","FEATURECLA":"Populated place","LATITUDE":47.669996,"LONGITUDE":-117.419949,"MIN_ZOOM":5.1},"geometry":{"type":"Point","coordinates":[-117.419949,47.669996]}},{"type":"Feature","properties":{"NAME":"Vancouver","SCALERANK":4,"POP_MAX":525802,"ADM1NAME":"Washington","FEATURECLA":"Populated place","LATITUDE":45.630301,"LONGITUDE":-122.639993,"MIN_ZOOM":5.6},"geometry":{"type":"Point","coordinates":[-122.639993,45.630301]}},{"type":"Feature","properties":{"NAME":"Flagstaff","SCALERANK":4,"POP_MAX":63993,"ADM1NAME":"Arizona","FEATURECLA":"Populated place","LATITUDE":35.198096,"LONGITUDE":-111.650508,"MIN_ZOOM":5.1},"geometry":{"type":"Point","coordinates":[-111.650508,35.198096]}},{"type":"Feature","properties":{"NAME":"Tucson","SCALERANK":4,"POP_MAX":823000,"ADM1NAME":"Arizona","FEATURECLA":"Populated place","LATITUDE":32.206943,"LONGITUDE":-110.891932,"MIN_ZOOM":5.1},"geometry":{"type":"Point","coordinates":[-110.891932,32.206943]}},{"type":"Feature","properties":{"NAME":"Santa Barbara","SCALERANK":4,"POP_MAX":181632,"ADM1NAME":"California","FEATURECLA":"Populated place","LATITUDE":34.43499,"LONGITUDE":-119.71999,"MIN_ZOOM":5.6},"geometry":{"type":"Point","coordinates":[-119.716618,34.410799]}},{"type":"Feature","properties":{"NAME":"Fresno","SCALERANK":4,"POP_MAX":616353,"ADM1NAME":"California","FEATURECLA":"Populated place","LATITUDE":36.747717,"LONGITUDE":-119.772984,"MIN_ZOOM":5.1},"geometry":{"type":"Point","coordinates":[-119.772984,36.747717]}},{"type":"Feature","properties":{"NAME":"Eureka","SCALERANK":4,"POP_MAX":42398,"ADM1NAME":"California","FEATURECLA":"Populated place","LATITUDE":40.802224,"LONGITUDE":-124.147497,"MIN_ZOOM":5},"geometry":{"type":"Point","coordinates":[-124.150371,40.793039]}},{"type":"Feature","properties":{"NAME":"Colorado Springs","SCALERANK":4,"POP_MAX":493654,"ADM1NAME":"Colorado","FEATURECLA":"Populated place","LATITUDE":38.862963,"LONGITUDE":-104.791986,"MIN_ZOOM":5.6},"geometry":{"type":"Point","coordinates":[-104.791986,38.862963]}},{"type":"Feature","properties":{"NAME":"Reno","SCALERANK":4,"POP_MAX":328585,"ADM1NAME":"Nevada","FEATURECLA":"Populated place","LATITUDE":39.529976,"LONGITUDE":-119.82001,"MIN_ZOOM":5.1},"geometry":{"type":"Point","coordinates":[-119.82001,39.529976]}},{"type":"Feature","properties":{"NAME":"Elko","SCALERANK":4,"POP_MAX":19252,"ADM1NAME":"Nevada","FEATURECLA":"Populated place","LATITUDE":40.832506,"LONGITUDE":-115.761989,"MIN_ZOOM":5.6},"geometry":{"type":"Point","coordinates":[-115.761989,40.832506]}},{"type":"Feature","properties":{"NAME":"Albuquerque","SCALERANK":4,"POP_MAX":898642,"ADM1NAME":"New Mexico","FEATURECLA":"Populated place","LATITUDE":35.104975,"LONGITUDE":-106.641331,"MIN_ZOOM":5.1},"geometry":{"type":"Point","coordinates":[-106.641331,35.104975]}},{"type":"Feature","properties":{"NAME":"Salem","SCALERANK":4,"POP_MAX":229010,"ADM1NAME":"Oregon","FEATURECLA":"Admin-1 capital","LATITUDE":44.92807,"LONGITUDE":-123.023897,"MIN_ZOOM":5.6},"geometry":{"type":"Point","coordinates":[-123.023897,44.92807]}},{"type":"Feature","properties":{"NAME":"Casper","SCALERANK":4,"POP_MAX":60791,"ADM1NAME":"Wyoming","FEATURECLA":"Populated place","LATITUDE":42.86662,"LONGITUDE":-106.312488,"MIN_ZOOM":5.6},"geometry":{"type":"Point","coordinates":[-106.323243,42.846872]}},{"type":"Feature","properties":{"NAME":"Topeka","SCALERANK":4,"POP_MAX":132091,"ADM1NAME":"Kansas","FEATURECLA":"Admin-1 capital","LATITUDE":39.050005,"LONGITUDE":-95.669985,"MIN_ZOOM":5.1},"geometry":{"type":"Point","coordinates":[-95.669985,39.050005]}},{"type":"Feature","properties":{"NAME":"Kansas City","SCALERANK":4,"POP_MAX":1469000,"ADM1NAME":"Missouri","FEATURECLA":"Populated place","LATITUDE":39.109034,"LONGITUDE":-94.60604,"MIN_ZOOM":5.1},"geometry":{"type":"Point","coordinates":[-94.60604,39.109034]}},{"type":"Feature","properties":{"NAME":"Tulsa","SCALERANK":4,"POP_MAX":946962,"ADM1NAME":"Oklahoma","FEATURECLA":"Populated place","LATITUDE":36.120003,"LONGITUDE":-95.930021,"MIN_ZOOM":5.6},"geometry":{"type":"Point","coordinates":[-95.930021,36.120003]}},{"type":"Feature","properties":{"NAME":"Sioux Falls","SCALERANK":4,"POP_MAX":155724,"ADM1NAME":"South Dakota","FEATURECLA":"Populated place","LATITUDE":43.549989,"LONGITUDE":-96.729998,"MIN_ZOOM":5.6},"geometry":{"type":"Point","coordinates":[-96.729998,43.549989]}},{"type":"Feature","properties":{"NAME":"Shreveport","SCALERANK":4,"POP_MAX":248053,"ADM1NAME":"Louisiana","FEATURECLA":"Populated place","LATITUDE":32.500018,"LONGITUDE":-93.770023,"MIN_ZOOM":5.6},"geometry":{"type":"Point","coordinates":[-93.770023,32.500017]}},{"type":"Feature","properties":{"NAME":"Baton Rouge","SCALERANK":4,"POP_MAX":422072,"ADM1NAME":"Louisiana","FEATURECLA":"Admin-1 capital","LATITUDE":30.457946,"LONGITUDE":-91.140158,"MIN_ZOOM":5.6},"geometry":{"type":"Point","coordinates":[-91.140158,30.457946]}},{"type":"Feature","properties":{"NAME":"Ft.  Worth","SCALERANK":4,"POP_MAX":1440454,"ADM1NAME":"Texas","FEATURECLA":"Populated place","LATITUDE":32.739977,"LONGITUDE":-97.340038,"MIN_ZOOM":5.1},"geometry":{"type":"Point","coordinates":[-97.340038,32.739977]}},{"type":"Feature","properties":{"NAME":"Corpus Christi","SCALERANK":4,"POP_MAX":277454,"ADM1NAME":"Texas","FEATURECLA":"Populated place","LATITUDE":27.742814,"LONGITUDE":-97.401895,"MIN_ZOOM":5.6},"geometry":{"type":"Point","coordinates":[-97.401895,27.742814]}},{"type":"Feature","properties":{"NAME":"Austin","SCALERANK":4,"POP_MAX":1161000,"ADM1NAME":"Texas","FEATURECLA":"Admin-1 capital","LATITUDE":30.268896,"LONGITUDE":-97.744724,"MIN_ZOOM":5.1},"geometry":{"type":"Point","coordinates":[-97.744724,30.268895]}},{"type":"Feature","properties":{"NAME":"Amarillo","SCALERANK":4,"POP_MAX":181766,"ADM1NAME":"Texas","FEATURECLA":"Populated place","LATITUDE":35.22998,"LONGITUDE":-101.829997,"MIN_ZOOM":5.6},"geometry":{"type":"Point","coordinates":[-101.829997,35.22998]}},{"type":"Feature","properties":{"NAME":"El Paso","SCALERANK":4,"POP_MAX":753000,"ADM1NAME":"Texas","FEATURECLA":"Populated place","LATITUDE":31.78193,"LONGITUDE":-106.511941,"MIN_ZOOM":5.1},"geometry":{"type":"Point","coordinates":[-106.511941,31.78193]}},{"type":"Feature","properties":{"NAME":"Laredo","SCALERANK":4,"POP_MAX":434768,"ADM1NAME":"Texas","FEATURECLA":"Populated place","LATITUDE":27.506136,"LONGITUDE":-99.507219,"MIN_ZOOM":5.6},"geometry":{"type":"Point","coordinates":[-99.507218,27.506136]}},{"type":"Feature","properties":{"NAME":"Burlington","SCALERANK":4,"POP_MAX":93807,"ADM1NAME":"Vermont","FEATURECLA":"Populated place","LATITUDE":44.475798,"LONGITUDE":-73.212467,"MIN_ZOOM":5.6},"geometry":{"type":"Point","coordinates":[-73.212467,44.475798]}},{"type":"Feature","properties":{"NAME":"Montgomery","SCALERANK":4,"POP_MAX":198325,"ADM1NAME":"Alabama","FEATURECLA":"Admin-1 capital","LATITUDE":32.361602,"LONGITUDE":-86.279189,"MIN_ZOOM":5.6},"geometry":{"type":"Point","coordinates":[-86.279189,32.361602]}},{"type":"Feature","properties":{"NAME":"Tallahassee","SCALERANK":4,"POP_MAX":221222,"ADM1NAME":"Florida","FEATURECLA":"Admin-1 capital","LATITUDE":30.449988,"LONGITUDE":-84.280034,"MIN_ZOOM":5.6},"geometry":{"type":"Point","coordinates":[-84.280034,30.449988]}},{"type":"Feature","properties":{"NAME":"Orlando","SCALERANK":4,"POP_MAX":1350000,"ADM1NAME":"Florida","FEATURECLA":"Populated place","LATITUDE":28.511923,"LONGITUDE":-81.381976,"MIN_ZOOM":5.1},"geometry":{"type":"Point","coordinates":[-81.381976,28.511923]}},{"type":"Feature","properties":{"NAME":"Jacksonville","SCALERANK":4,"POP_MAX":988000,"ADM1NAME":"Florida","FEATURECLA":"Populated place","LATITUDE":30.331967,"LONGITUDE":-81.671933,"MIN_ZOOM":5.1},"geometry":{"type":"Point","coordinates":[-81.671933,30.331967]}},{"type":"Feature","properties":{"NAME":"Savannah","SCALERANK":4,"POP_MAX":180187,"ADM1NAME":"Georgia","FEATURECLA":"Populated place","LATITUDE":32.021106,"LONGITUDE":-81.109995,"MIN_ZOOM":5.1},"geometry":{"type":"Point","coordinates":[-81.109995,32.021106]}},{"type":"Feature","properties":{"NAME":"Columbia","SCALERANK":4,"POP_MAX":398093,"ADM1NAME":"South Carolina","FEATURECLA":"Admin-1 capital","LATITUDE":34.039975,"LONGITUDE":-80.899982,"MIN_ZOOM":5.6},"geometry":{"type":"Point","coordinates":[-81.031262,33.996861]}},{"type":"Feature","properties":{"NAME":"Indianapolis","SCALERANK":4,"POP_MAX":1436000,"ADM1NAME":"Indiana","FEATURECLA":"Admin-1 capital","LATITUDE":39.751934,"LONGITUDE":-86.171994,"MIN_ZOOM":5.1},"geometry":{"type":"Point","coordinates":[-86.171994,39.751934]}},{"type":"Feature","properties":{"NAME":"Wilmington","SCALERANK":4,"POP_MAX":161560,"ADM1NAME":"North Carolina","FEATURECLA":"Populated place","LATITUDE":34.225519,"LONGITUDE":-77.94502,"MIN_ZOOM":5.1},"geometry":{"type":"Point","coordinates":[-77.94502,34.225519]}},{"type":"Feature","properties":{"NAME":"Knoxville","SCALERANK":4,"POP_MAX":655400,"ADM1NAME":"Tennessee","FEATURECLA":"Populated place","LATITUDE":35.970012,"LONGITUDE":-83.92003,"MIN_ZOOM":5.6},"geometry":{"type":"Point","coordinates":[-83.92003,35.970012]}},{"type":"Feature","properties":{"NAME":"Richmond","SCALERANK":4,"POP_MAX":912000,"ADM1NAME":"Virginia","FEATURECLA":"Admin-1 capital","LATITUDE":37.551965,"LONGITUDE":-77.451932,"MIN_ZOOM":5},"geometry":{"type":"Point","coordinates":[-77.451932,37.551965]}},{"type":"Feature","properties":{"NAME":"Charleston","SCALERANK":4,"POP_MAX":123799,"ADM1NAME":"West Virginia","FEATURECLA":"Admin-1 capital","LATITUDE":38.349738,"LONGITUDE":-81.632728,"MIN_ZOOM":5.1},"geometry":{"type":"Point","coordinates":[-81.632728,38.349738]}},{"type":"Feature","properties":{"NAME":"Baltimore","SCALERANK":4,"POP_MAX":2255000,"ADM1NAME":"Maryland","FEATURECLA":"Populated place","LATITUDE":39.301936,"LONGITUDE":-76.621931,"MIN_ZOOM":5.6},"geometry":{"type":"Point","coordinates":[-76.614582,39.281516]}},{"type":"Feature","properties":{"NAME":"Syracuse","SCALERANK":4,"POP_MAX":662577,"ADM1NAME":"New York","FEATURECLA":"Populated place","LATITUDE":43.049994,"LONGITUDE":-76.150014,"MIN_ZOOM":5.6},"geometry":{"type":"Point","coordinates":[-76.150014,43.049994]}},{"type":"Feature","properties":{"NAME":"Augusta","SCALERANK":4,"POP_MAX":24042,"ADM1NAME":"Maine","FEATURECLA":"Admin-1 capital","LATITUDE":44.310563,"LONGITUDE":-69.779989,"MIN_ZOOM":5.6},"geometry":{"type":"Point","coordinates":[-69.779989,44.310563]}},{"type":"Feature","properties":{"NAME":"Sault Ste. Marie","SCALERANK":4,"POP_MAX":83805,"ADM1NAME":"Michigan","FEATURECLA":"Populated place","LATITUDE":46.495262,"LONGITUDE":-84.345276,"MIN_ZOOM":5.1},"geometry":{"type":"Point","coordinates":[-84.345276,46.495261]}},{"type":"Feature","properties":{"NAME":"Sitka","SCALERANK":4,"POP_MAX":8931,"ADM1NAME":"Alaska","FEATURECLA":"Populated place","LATITUDE":57.060398,"LONGITUDE":-135.327549,"MIN_ZOOM":5.1},"geometry":{"type":"Point","coordinates":[-135.327549,57.060398]}},{"type":"Feature","properties":{"NAME":"Helena","SCALERANK":3,"POP_MAX":38725,"ADM1NAME":"Montana","FEATURECLA":"Admin-1 capital","LATITUDE":46.592749,"LONGITUDE":-112.035291,"MIN_ZOOM":5},"geometry":{"type":"Point","coordinates":[-112.035291,46.592749]}},{"type":"Feature","properties":{"NAME":"Bismarck","SCALERANK":3,"POP_MAX":63871,"ADM1NAME":"North Dakota","FEATURECLA":"Admin-1 capital","LATITUDE":46.808317,"LONGITUDE":-100.783316,"MIN_ZOOM":5},"geometry":{"type":"Point","coordinates":[-100.783316,46.808317]}},{"type":"Feature","properties":{"NAME":"Boise","SCALERANK":3,"POP_MAX":338071,"ADM1NAME":"Idaho","FEATURECLA":"Admin-1 capital","LATITUDE":43.60859,"LONGITUDE":-116.22749,"MIN_ZOOM":5},"geometry":{"type":"Point","coordinates":[-116.22749,43.60859]}},{"type":"Feature","properties":{"NAME":"San Jose","SCALERANK":3,"POP_MAX":1668000,"ADM1NAME":"California","FEATURECLA":"Populated place","LATITUDE":37.301929,"LONGITUDE":-121.851935,"MIN_ZOOM":5},"geometry":{"type":"Point","coordinates":[-121.888179,37.330943]}},{"type":"Feature","properties":{"NAME":"Sacramento","SCALERANK":3,"POP_MAX":1604000,"ADM1NAME":"California","FEATURECLA":"Admin-1 capital","LATITUDE":38.576967,"LONGITUDE":-121.471984,"MIN_ZOOM":5},"geometry":{"type":"Point","coordinates":[-121.471984,38.576967]}},{"type":"Feature","properties":{"NAME":"Las Vegas","SCALERANK":3,"POP_MAX":1823000,"ADM1NAME":"Nevada","FEATURECLA":"Populated place","LATITUDE":36.211944,"LONGITUDE":-115.221952,"MIN_ZOOM":5},"geometry":{"type":"Point","coordinates":[-115.151362,36.164763]}},{"type":"Feature","properties":{"NAME":"Santa Fe","SCALERANK":3,"POP_MAX":92681,"ADM1NAME":"New Mexico","FEATURECLA":"Admin-1 capital","LATITUDE":35.686929,"LONGITUDE":-105.937239,"MIN_ZOOM":5},"geometry":{"type":"Point","coordinates":[-105.937239,35.686929]}},{"type":"Feature","properties":{"NAME":"Portland","SCALERANK":3,"POP_MAX":1875000,"ADM1NAME":"Oregon","FEATURECLA":"Populated place","LATITUDE":45.52197,"LONGITUDE":-122.681936,"MIN_ZOOM":4},"geometry":{"type":"Point","coordinates":[-122.681936,45.52197]}},{"type":"Feature","properties":{"NAME":"Salt Lake City","SCALERANK":3,"POP_MAX":966000,"ADM1NAME":"Utah","FEATURECLA":"Admin-1 capital","LATITUDE":40.776962,"LONGITUDE":-111.931998,"MIN_ZOOM":4},"geometry":{"type":"Point","coordinates":[-111.931998,40.776962]}},{"type":"Feature","properties":{"NAME":"Cheyenne","SCALERANK":3,"POP_MAX":72927,"ADM1NAME":"Wyoming","FEATURECLA":"Admin-1 capital","LATITUDE":41.140007,"LONGITUDE":-104.819711,"MIN_ZOOM":5},"geometry":{"type":"Point","coordinates":[-104.819711,41.140007]}},{"type":"Feature","properties":{"NAME":"Des Moines","SCALERANK":3,"POP_MAX":380655,"ADM1NAME":"Iowa","FEATURECLA":"Admin-1 capital","LATITUDE":41.57998,"LONGITUDE":-93.619981,"MIN_ZOOM":5},"geometry":{"type":"Point","coordinates":[-93.619981,41.57998]}},{"type":"Feature","properties":{"NAME":"Omaha","SCALERANK":3,"POP_MAX":877110,"ADM1NAME":"Nebraska","FEATURECLA":"Populated place","LATITUDE":41.240001,"LONGITUDE":-96.00999,"MIN_ZOOM":5},"geometry":{"type":"Point","coordinates":[-96.00999,41.240001]}},{"type":"Feature","properties":{"NAME":"Oklahoma City","SCALERANK":3,"POP_MAX":788000,"ADM1NAME":"Oklahoma","FEATURECLA":"Admin-1 capital","LATITUDE":35.471989,"LONGITUDE":-97.520629,"MIN_ZOOM":5},"geometry":{"type":"Point","coordinates":[-97.520629,35.471989]}},{"type":"Feature","properties":{"NAME":"Pierre","SCALERANK":3,"POP_MAX":13879,"ADM1NAME":"South Dakota","FEATURECLA":"Admin-1 capital","LATITUDE":44.368337,"LONGITUDE":-100.350552,"MIN_ZOOM":5},"geometry":{"type":"Point","coordinates":[-100.350552,44.368337]}},{"type":"Feature","properties":{"NAME":"San Antonio","SCALERANK":3,"POP_MAX":1473000,"ADM1NAME":"Texas","FEATURECLA":"Populated place","LATITUDE":29.489279,"LONGITUDE":-98.509251,"MIN_ZOOM":5},"geometry":{"type":"Point","coordinates":[-98.492693,29.419848]}},{"type":"Feature","properties":{"NAME":"Jackson","SCALERANK":3,"POP_MAX":250902,"ADM1NAME":"Mississippi","FEATURECLA":"Admin-1 capital","LATITUDE":32.298815,"LONGITUDE":-90.184997,"MIN_ZOOM":5},"geometry":{"type":"Point","coordinates":[-90.184997,32.298815]}},{"type":"Feature","properties":{"NAME":"Raleigh","SCALERANK":3,"POP_MAX":1163515,"ADM1NAME":"North Carolina","FEATURECLA":"Admin-1 capital","LATITUDE":35.818781,"LONGITUDE":-78.644693,"MIN_ZOOM":5},"geometry":{"type":"Point","coordinates":[-78.647035,35.772696]}},{"type":"Feature","properties":{"NAME":"Cleveland","SCALERANK":3,"POP_MAX":1890000,"ADM1NAME":"Ohio","FEATURECLA":"Populated place","LATITUDE":41.471933,"LONGITUDE":-81.696944,"MIN_ZOOM":5},"geometry":{"type":"Point","coordinates":[-81.696944,41.471933]}},{"type":"Feature","properties":{"NAME":"Cincinnati","SCALERANK":3,"POP_MAX":1636000,"ADM1NAME":"Ohio","FEATURECLA":"Populated place","LATITUDE":39.163831,"LONGITUDE":-84.458869,"MIN_ZOOM":5},"geometry":{"type":"Point","coordinates":[-84.458868,39.163831]}},{"type":"Feature","properties":{"NAME":"Nashville","SCALERANK":3,"POP_MAX":877000,"ADM1NAME":"Tennessee","FEATURECLA":"Admin-1 capital","LATITUDE":36.17192,"LONGITUDE":-86.781931,"MIN_ZOOM":5},"geometry":{"type":"Point","coordinates":[-86.781931,36.17192]}},{"type":"Feature","properties":{"NAME":"Memphis","SCALERANK":3,"POP_MAX":1081000,"ADM1NAME":"Tennessee","FEATURECLA":"Populated place","LATITUDE":35.121933,"LONGITUDE":-90.001941,"MIN_ZOOM":5},"geometry":{"type":"Point","coordinates":[-90.028777,35.144701]}},{"type":"Feature","properties":{"NAME":"Norfolk","SCALERANK":3,"POP_MAX":1047869,"ADM1NAME":"Virginia","FEATURECLA":"Populated place","LATITUDE":36.849959,"LONGITUDE":-76.280006,"MIN_ZOOM":5.7},"geometry":{"type":"Point","coordinates":[-76.280006,36.849959]}},{"type":"Feature","properties":{"NAME":"Milwaukee","SCALERANK":3,"POP_MAX":1388000,"ADM1NAME":"Wisconsin","FEATURECLA":"Populated place","LATITUDE":43.054601,"LONGITUDE":-87.921913,"MIN_ZOOM":5},"geometry":{"type":"Point","coordinates":[-87.916673,43.029608]}},{"type":"Feature","properties":{"NAME":"Buffalo","SCALERANK":3,"POP_MAX":1016000,"ADM1NAME":"New York","FEATURECLA":"Populated place","LATITUDE":42.881924,"LONGITUDE":-78.881948,"MIN_ZOOM":5},"geometry":{"type":"Point","coordinates":[-78.881948,42.881924]}},{"type":"Feature","properties":{"NAME":"Pittsburgh","SCALERANK":3,"POP_MAX":1838000,"ADM1NAME":"Pennsylvania","FEATURECLA":"Populated place","LATITUDE":40.431945,"LONGITUDE":-80.001931,"MIN_ZOOM":5},"geometry":{"type":"Point","coordinates":[-80.001931,40.431945]}},{"type":"Feature","properties":{"NAME":"Kodiak","SCALERANK":3,"POP_MAX":9461,"ADM1NAME":"Alaska","FEATURECLA":"Populated place","LATITUDE":57.789998,"LONGITUDE":-152.406987,"MIN_ZOOM":5},"geometry":{"type":"Point","coordinates":[-152.406987,57.789998]}},{"type":"Feature","properties":{"NAME":"Cold Bay","SCALERANK":3,"POP_MAX":200,"ADM1NAME":"Alaska","FEATURECLA":"Populated place","LATITUDE":55.200001,"LONGITUDE":-162.715092,"MIN_ZOOM":5},"geometry":{"type":"Point","coordinates":[-162.715092,55.200001]}},{"type":"Feature","properties":{"NAME":"Bethel","SCALERANK":3,"POP_MAX":6228,"ADM1NAME":"Alaska","FEATURECLA":"Populated place","LATITUDE":60.793303,"LONGITUDE":-161.755796,"MIN_ZOOM":5},"geometry":{"type":"Point","coordinates":[-161.755796,60.793303]}},{"type":"Feature","properties":{"NAME":"Point Hope","SCALERANK":3,"POP_MAX":461,"ADM1NAME":"Alaska","FEATURECLA":"Populated place","LATITUDE":68.347726,"LONGITUDE":-166.80802,"MIN_ZOOM":5},"geometry":{"type":"Point","coordinates":[-166.80802,68.347726]}},{"type":"Feature","properties":{"NAME":"Utqiaġvik","SCALERANK":3,"POP_MAX":4336,"ADM1NAME":"Alaska","FEATURECLA":"Populated place","LATITUDE":71.29057,"LONGITUDE":-156.78858,"MIN_ZOOM":5},"geometry":{"type":"Point","coordinates":[-156.78858,71.29057]}},{"type":"Feature","properties":{"NAME":"Nome","SCALERANK":3,"POP_MAX":3485,"ADM1NAME":"Alaska","FEATURECLA":"Populated place","LATITUDE":64.5061,"LONGITUDE":-165.406374,"MIN_ZOOM":4},"geometry":{"type":"Point","coordinates":[-165.406374,64.5061]}},{"type":"Feature","properties":{"NAME":"Valdez","SCALERANK":3,"POP_MAX":4036,"ADM1NAME":"Alaska","FEATURECLA":"Populated place","LATITUDE":61.135996,"LONGITUDE":-146.348287,"MIN_ZOOM":5},"geometry":{"type":"Point","coordinates":[-146.348287,61.135996]}},{"type":"Feature","properties":{"NAME":"Juneau","SCALERANK":3,"POP_MAX":30711,"ADM1NAME":"Alaska","FEATURECLA":"Admin-1 capital","LATITUDE":58.314127,"LONGITUDE":-134.419997,"MIN_ZOOM":4},"geometry":{"type":"Point","coordinates":[-134.400712,58.303386]}},{"type":"Feature","properties":{"NAME":"Fairbanks","SCALERANK":3,"POP_MAX":56993,"ADM1NAME":"Alaska","FEATURECLA":"Populated place","LATITUDE":64.836984,"LONGITUDE":-147.710659,"MIN_ZOOM":4},"geometry":{"type":"Point","coordinates":[-147.710659,64.836984]}},{"type":"Feature","properties":{"NAME":"Prudhoe Bay","SCALERANK":3,"POP_MAX":2500,"ADM1NAME":"Alaska","FEATURECLA":"Populated place","LATITUDE":70.292181,"LONGITUDE":-148.66936,"MIN_ZOOM":3.7},"geometry":{"type":"Point","coordinates":[-148.66936,70.292181]}},{"type":"Feature","properties":{"NAME":"Minneapolis","SCALERANK":2,"POP_MAX":2616000,"ADM1NAME":"Minnesota","FEATURECLA":"Populated place","LATITUDE":44.981925,"LONGITUDE":-93.253732,"MIN_ZOOM":4},"geometry":{"type":"Point","coordinates":[-93.253732,44.981925]}},{"type":"Feature","properties":{"NAME":"Honolulu","SCALERANK":2,"POP_MAX":786000,"ADM1NAME":"Hawaii","FEATURECLA":"Admin-1 capital","LATITUDE":21.308822,"LONGITUDE":-157.859944,"MIN_ZOOM":4},"geometry":{"type":"Point","coordinates":[-157.858301,21.303429]}},{"type":"Feature","properties":{"NAME":"Seattle","SCALERANK":2,"POP_MAX":3074000,"ADM1NAME":"Washington","FEATURECLA":"Populated place","LATITUDE":47.571948,"LONGITUDE":-122.341931,"MIN_ZOOM":4},"geometry":{"type":"Point","coordinates":[-122.315322,47.600423]}},{"type":"Feature","properties":{"NAME":"Phoenix","SCALERANK":2,"POP_MAX":3551000,"ADM1NAME":"Arizona","FEATURECLA":"Admin-1 capital","LATITUDE":33.541926,"LONGITUDE":-112.071938,"MIN_ZOOM":4},"geometry":{"type":"Point","coordinates":[-112.067365,33.448322]}},{"type":"Feature","properties":{"NAME":"San Diego","SCALERANK":2,"POP_MAX":2916000,"ADM1NAME":"California","FEATURECLA":"Populated place","LATITUDE":32.82197,"LONGITUDE":-117.181936,"MIN_ZOOM":4},"geometry":{"type":"Point","coordinates":[-117.150881,32.718914]}},{"type":"Feature","properties":{"NAME":"St. Louis","SCALERANK":2,"POP_MAX":2199000,"ADM1NAME":"Missouri","FEATURECLA":"Populated place","LATITUDE":38.636964,"LONGITUDE":-90.241926,"MIN_ZOOM":4},"geometry":{"type":"Point","coordinates":[-90.241926,38.636964]}},{"type":"Feature","properties":{"NAME":"New Orleans","SCALERANK":2,"POP_MAX":785000,"ADM1NAME":"Louisiana","FEATURECLA":"Populated place","LATITUDE":29.996948,"LONGITUDE":-90.041913,"MIN_ZOOM":4},"geometry":{"type":"Point","coordinates":[-90.088368,29.968908]}},{"type":"Feature","properties":{"NAME":"Dallas","SCALERANK":2,"POP_MAX":4798000,"ADM1NAME":"Texas","FEATURECLA":"Populated place","LATITUDE":32.82197,"LONGITUDE":-96.841963,"MIN_ZOOM":4},"geometry":{"type":"Point","coordinates":[-96.794687,32.771958]}},{"type":"Feature","properties":{"NAME":"Boston","SCALERANK":2,"POP_MAX":4467000,"ADM1NAME":"Massachusetts","FEATURECLA":"Admin-1 capital","LATITUDE":42.331906,"LONGITUDE":-71.07196,"MIN_ZOOM":4},"geometry":{"type":"Point","coordinates":[-71.07196,42.331906]}},{"type":"Feature","properties":{"NAME":"Tampa","SCALERANK":2,"POP_MAX":2314000,"ADM1NAME":"Florida","FEATURECLA":"Populated place","LATITUDE":27.948934,"LONGITUDE":-82.460567,"MIN_ZOOM":5},"geometry":{"type":"Point","coordinates":[-82.460567,27.948934]}},{"type":"Feature","properties":{"NAME":"Philadelphia","SCALERANK":2,"POP_MAX":5492000,"ADM1NAME":"Pennsylvania","FEATURECLA":"Populated place","LATITUDE":40.001919,"LONGITUDE":-75.171942,"MIN_ZOOM":5},"geometry":{"type":"Point","coordinates":[-75.179841,39.945942]}},{"type":"Feature","properties":{"NAME":"Detroit","SCALERANK":2,"POP_MAX":4101000,"ADM1NAME":"Michigan","FEATURECLA":"Populated place","LATITUDE":42.331906,"LONGITUDE":-83.082002,"MIN_ZOOM":4},"geometry":{"type":"Point","coordinates":[-83.051334,42.333558]}},{"type":"Feature","properties":{"NAME":"Anchorage","SCALERANK":2,"POP_MAX":260283,"ADM1NAME":"Alaska","FEATURECLA":"Populated place","LATITUDE":61.21997,"LONGITUDE":-149.900215,"MIN_ZOOM":3},"geometry":{"type":"Point","coordinates":[-149.887446,61.214004]}},{"type":"Feature","properties":{"NAME":"San Francisco","SCALERANK":1,"POP_MAX":3450000,"ADM1NAME":"California","FEATURECLA":"Populated place","LATITUDE":37.769196,"LONGITUDE":-122.417169,"MIN_ZOOM":2.7},"geometry":{"type":"Point","coordinates":[-122.3996,37.784263]}},{"type":"Feature","properties":{"NAME":"Denver","SCALERANK":1,"POP_MAX":2313000,"ADM1NAME":"Colorado","FEATURECLA":"Admin-1 capital","LATITUDE":39.741134,"LONGITUDE":-104.985962,"MIN_ZOOM":3.7},"geometry":{"type":"Point","coordinates":[-104.985962,39.741134]}},{"type":"Feature","properties":{"NAME":"Houston","SCALERANK":1,"POP_MAX":4459000,"ADM1NAME":"Texas","FEATURECLA":"Populated place","LATITUDE":29.82192,"LONGITUDE":-95.341925,"MIN_ZOOM":3},"geometry":{"type":"Point","coordinates":[-95.348436,29.741273]}},{"type":"Feature","properties":{"NAME":"Miami","SCALERANK":1,"POP_MAX":5585000,"ADM1NAME":"Florida","FEATURECLA":"Populated place","LATITUDE":25.789557,"LONGITUDE":-80.226052,"MIN_ZOOM":2.1},"geometry":{"type":"Point","coordinates":[-80.226052,25.789557]}},{"type":"Feature","properties":{"NAME":"Atlanta","SCALERANK":1,"POP_MAX":4506000,"ADM1NAME":"Georgia","FEATURECLA":"Admin-1 capital","LATITUDE":33.83196,"LONGITUDE":-84.401895,"MIN_ZOOM":3},"geometry":{"type":"Point","coordinates":[-84.367642,33.739457]}},{"type":"Feature","properties":{"NAME":"Chicago","SCALERANK":1,"POP_MAX":8990000,"ADM1NAME":"Illinois","FEATURECLA":"Populated place","LATITUDE":41.831937,"LONGITUDE":-87.752001,"MIN_ZOOM":3},"geometry":{"type":"Point","coordinates":[-87.635237,41.847961]}},{"type":"Feature","properties":{"NAME":"Los Angeles","SCALERANK":0,"POP_MAX":12500000,"ADM1NAME":"California","FEATURECLA":"Populated place","LATITUDE":33.991924,"LONGITUDE":-118.181926,"MIN_ZOOM":2},"geometry":{"type":"Point","coordinates":[-118.231986,34.049219]}},{"type":"Feature","properties":{"NAME":"Washington,  D.C.","SCALERANK":0,"POP_MAX":4338000,"ADM1NAME":"District of Columbia","FEATURECLA":"Admin-0 capital","LATITUDE":38.901495,"LONGITUDE":-77.011364,"MIN_ZOOM":2.1},"geometry":{"type":"Point","coordinates":[-77.011364,38.901495]}},{"type":"Feature","properties":{"NAME":"New York","SCALERANK":0,"POP_MAX":19040000,"ADM1NAME":"New York","FEATURECLA":"Populated place","LATITUDE":40.751925,"LONGITUDE":-73.981963,"MIN_ZOOM":1.7},"geometry":{"type":"Point","coordinates":[-73.995718,40.721562]}}]}